[{"OBJECT_NAME":"STARLINK-30138","OBJECT_ID":"2023-119D","EPOCH":"2026-01-25T01:50:35.873376","MEAN_MOTION":15.02549911,"ECCENTRICITY":7.145e-5,"INCLINATION":43.0073,"RA_OF_ASC_NODE":318.7456,"ARG_OF_PERICENTER":263.6329,"MEAN_ANOMALY":96.4433,"EPHEMERIS_TYPE":0,"CLASSIFICATION_TYPE":"U","NORAD_CAT_ID":57605,"ELEMENT_SET_NO":999,"REV_AT_EPOCH":13652,"BSTAR":9.812769e-6,"MEAN_MOTION_DOT":-7.1e-7,"MEAN_MOTION_DDOT":0},{"OBJECT_NAME":"STARLINK-30255","OBJECT_ID":"2023-119E","EPOCH":"2026-01-25T20:22:34.144320","MEAN_MOTION":15.02561662,"ECCENTRICITY":0.00021211,"INCLINATION":43.0032,"RA_OF_ASC_NODE":314.2151,"ARG_OF_PERICENTER":277.0438,"MEAN_ANOMALY":83.0163,"EPHEMERIS_TYPE":0,"CLASSIFICATION_TYPE":"U","NORAD_CAT_ID":57606,"ELEMENT_SET_NO":999,"REV_AT_EPOCH":13664,"BSTAR":-0.00017226367,"MEAN_MOTION_DOT":-2.532e-5,"MEAN_MOTION_DDOT":0},{"OBJECT_NAME":"STARLINK-30252","OBJECT_ID":"2023-119F","EPOCH":"2026-01-25T02:05:23.593632","MEAN_MOTION":15.02538487,"ECCENTRICITY":0.00014376,"INCLINATION":43.0043,"RA_OF_ASC_NODE":306.081,"ARG_OF_PERICENTER":270.8346,"MEAN_ANOMALY":89.2332,"EPHEMERIS_TYPE":0,"CLASSIFICATION_TYPE":"U","NORAD_CAT_ID":57607,"ELEMENT_SET_NO":999,"REV_AT_EPOCH":13667,"BSTAR":0.00013896803,"MEAN_MOTION_DOT":1.674e-5,"MEAN_MOTION_DDOT":0},{"OBJECT_NAME":"STARLINK-30258","OBJECT_ID":"2023-119G","EPOCH":"2026-01-25T22:22:20.160192","MEAN_MOTION":15.02476517,"ECCENTRICITY":6.386e-5,"INCLINATION":43.0034,"RA_OF_ASC_NODE":313.9796,"ARG_OF_PERICENTER":280.9281,"MEAN_ANOMALY":79.1489,"EPHEMERIS_TYPE":0,"CLASSIFICATION_TYPE":"U","NORAD_CAT_ID":57608,"ELEMENT_SET_NO":999,"REV_AT_EPOCH":13665,"BSTAR":0.0028915039,"MEAN_MOTION_DOT":0.00039012,"MEAN_MOTION_DDOT":0},{"OBJECT_NAME":"STARLINK-30174","OBJECT_ID":"2023-119H","EPOCH":"2026-01-25T22:11:04.869888","MEAN_MOTION":15.02543123,"ECCENTRICITY":6.459e-5,"INCLINATION":43.0033,"RA_OF_ASC_NODE":313.9204,"ARG_OF_PERICENTER":256.9529,"MEAN_ANOMALY":103.1242,"EPHEMERIS_TYPE":0,"CLASSIFICATION_TYPE":"U","NORAD_CAT_ID":57609,"ELEMENT_SET_NO":999,"REV_AT_EPOCH":13665,"BSTAR":-3.0815792e-5,"MEAN_MOTION_DOT":-6.2e-6,"MEAN_MOTION_DDOT":0},{"OBJECT_NAME":"STARLINK-30248","OBJECT_ID":"2023-119J","EPOCH":"2026-01-25T20:40:08.887872","MEAN_MOTION":15.02534225,"ECCENTRICITY":0.00014065,"INCLINATION":43.0045,"RA_OF_ASC_NODE":314.3104,"ARG_OF_PERICENTER":271.1711,"MEAN_ANOMALY":88.897,"EPHEMERIS_TYPE":0,"CLASSIFICATION_TYPE":"U","NORAD_CAT_ID":57610,"ELEMENT_SET_NO":999,"REV_AT_EPOCH":13664,"BSTAR":0.00028529469,"MEAN_MOTION_DOT":3.652e-5,"MEAN_MOTION_DDOT":0},{"OBJECT_NAME":"STARLINK-30052","OBJECT_ID":"2023-119K","EPOCH":"2026-01-25T20:30:33.999552","MEAN_MOTION":15.02533168,"ECCENTRICITY":0.00012438,"INCLINATION":43.0054,"RA_OF_ASC_NODE":314.2539,"ARG_OF_PERICENTER":271.2907,"MEAN_ANOMALY":88.7793,"EPHEMERIS_TYPE":0,"CLASSIFICATION_TYPE":"U","NORAD_CAT_ID":57611,"ELEMENT_SET_NO":999,"REV_AT_EPOCH":13662,"BSTAR":9.881127e-6,"MEAN_MOTION_DOT":-7.0e-7,"MEAN_MOTION_DDOT":0},{"OBJECT_NAME":"STARLINK-30245","OBJECT_ID":"2023-119L","EPOCH":"2026-01-25T20:25:45.783840","MEAN_MOTION":15.02536385,"ECCENTRICITY":0.00010149,"INCLINATION":43.0023,"RA_OF_ASC_NODE":314.2303,"ARG_OF_PERICENTER":273.2351,"MEAN_ANOMALY":86.8376,"EPHEMERIS_TYPE":0,"CLASSIFICATION_TYPE":"U","NORAD_CAT_ID":57612,"ELEMENT_SET_NO":999,"REV_AT_EPOCH":13664,"BSTAR":0.00012372859,"MEAN_MOTION_DOT":1.468e-5,"MEAN_MOTION_DDOT":0},{"OBJECT_NAME":"STARLINK-30041","OBJECT_ID":"2023-119M","EPOCH":"2026-01-25T20:20:58.350048","MEAN_MOTION":15.02534946,"ECCENTRICITY":6.076e-5,"INCLINATION":43.0025,"RA_OF_ASC_NODE":314.2029,"ARG_OF_PERICENTER":251.0632,"MEAN_ANOMALY":109.0145,"EPHEMERIS_TYPE":0,"CLASSIFICATION_TYPE":"U","NORAD_CAT_ID":57613,"ELEMENT_SET_NO":999,"REV_AT_EPOCH":13664,"BSTAR":-3.115271e-5,"MEAN_MOTION_DOT":-6.24e-6,"MEAN_MOTION_DDOT":0},{"OBJECT_NAME":"STARLINK-30244","OBJECT_ID":"2023-119N","EPOCH":"2026-01-25T20:16:10.831584","MEAN_MOTION":15.02527863,"ECCENTRICITY":0.00013008,"INCLINATION":43.0036,"RA_OF_ASC_NODE":314.183,"ARG_OF_PERICENTER":277.2313,"MEAN_ANOMALY":82.8381,"EPHEMERIS_TYPE":0,"CLASSIFICATION_TYPE":"U","NORAD_CAT_ID":57614,"ELEMENT_SET_NO":999,"REV_AT_EPOCH":13664,"BSTAR":-4.0104344e-5,"MEAN_MOTION_DOT":-7.45e-6,"MEAN_MOTION_DDOT":0},{"OBJECT_NAME":"STARLINK-30246","OBJECT_ID":"2023-119P","EPOCH":"2026-01-25T20:11:22.941600","MEAN_MOTION":15.02535308,"ECCENTRICITY":0.0001226,"INCLINATION":43.0058,"RA_OF_ASC_NODE":314.1431,"ARG_OF_PERICENTER":266.9559,"MEAN_ANOMALY":93.1143,"EPHEMERIS_TYPE":0,"CLASSIFICATION_TYPE":"U","NORAD_CAT_ID":57615,"ELEMENT_SET_NO":999,"REV_AT_EPOCH":13664,"BSTAR":0.00010278893,"MEAN_MOTION_DOT":1.185e-5,"MEAN_MOTION_DDOT":0},{"OBJECT_NAME":"STARLINK-30075","OBJECT_ID":"2023-119Q","EPOCH":"2026-01-25T20:06:45.759168","MEAN_MOTION":15.02538813,"ECCENTRICITY":9.682e-5,"INCLINATION":43.0007,"RA_OF_ASC_NODE":314.9926,"ARG_OF_PERICENTER":294.9735,"MEAN_ANOMALY":65.1007,"EPHEMERIS_TYPE":0,"CLASSIFICATION_TYPE":"U","NORAD_CAT_ID":57616,"ELEMENT_SET_NO":999,"REV_AT_EPOCH":13663,"BSTAR":4.6710544e-5,"MEAN_MOTION_DOT":4.28e-6,"MEAN_MOTION_DDOT":0},{"OBJECT_NAME":"STARLINK-30148","OBJECT_ID":"2023-119R","EPOCH":"2026-01-25T20:01:58.512000","MEAN_MOTION":15.0253103,"ECCENTRICITY":0.00014763,"INCLINATION":43.0051,"RA_OF_ASC_NODE":314.9721,"ARG_OF_PERICENTER":275.7912,"MEAN_ANOMALY":84.2762,"EPHEMERIS_TYPE":0,"CLASSIFICATION_TYPE":"U","NORAD_CAT_ID":57617,"ELEMENT_SET_NO":999,"REV_AT_EPOCH":13663,"BSTAR":-5.7514701e-5,"MEAN_MOTION_DOT":-9.8e-6,"MEAN_MOTION_DDOT":0},{"OBJECT_NAME":"STARLINK-30249","OBJECT_ID":"2023-119S","EPOCH":"2026-01-25T18:21:25.944768","MEAN_MOTION":15.02548814,"ECCENTRICITY":0.00014079,"INCLINATION":43.0054,"RA_OF_ASC_NODE":315.3045,"ARG_OF_PERICENTER":269.3605,"MEAN_ANOMALY":90.7076,"EPHEMERIS_TYPE":0,"CLASSIFICATION_TYPE":"U","NORAD_CAT_ID":57618,"ELEMENT_SET_NO":999,"REV_AT_EPOCH":13662,"BSTAR":-0.00016101903,"MEAN_MOTION_DOT":-2.379e-5,"MEAN_MOTION_DDOT":0},{"OBJECT_NAME":"STARLINK-30141","OBJECT_ID":"2023-119U","EPOCH":"2026-01-25T19:39:33.478272","MEAN_MOTION":15.02596943,"ECCENTRICITY":0.00012665,"INCLINATION":43.0065,"RA_OF_ASC_NODE":314.8568,"ARG_OF_PERICENTER":280.4964,"MEAN_ANOMALY":79.5735,"EPHEMERIS_TYPE":0,"CLASSIFICATION_TYPE":"U","NORAD_CAT_ID":57620,"ELEMENT_SET_NO":999,"REV_AT_EPOCH":13663,"BSTAR":-0.00089650181,"MEAN_MOTION_DOT":-0.00012312,"MEAN_MOTION_DDOT":0},{"OBJECT_NAME":"STARLINK-30150","OBJECT_ID":"2023-119V","EPOCH":"2026-01-24T22:58:18.980832","MEAN_MOTION":15.02549343,"ECCENTRICITY":0.00012564,"INCLINATION":43.0024,"RA_OF_ASC_NODE":319.5687,"ARG_OF_PERICENTER":287.6404,"MEAN_ANOMALY":72.4301,"EPHEMERIS_TYPE":0,"CLASSIFICATION_TYPE":"U","NORAD_CAT_ID":57621,"ELEMENT_SET_NO":999,"REV_AT_EPOCH":13650,"BSTAR":-2.7132101e-5,"MEAN_MOTION_DOT":-5.7e-6,"MEAN_MOTION_DDOT":0},{"OBJECT_NAME":"STARLINK-30056","OBJECT_ID":"2023-119W","EPOCH":"2026-01-25T22:49:26.586624","MEAN_MOTION":15.02545149,"ECCENTRICITY":0.00011085,"INCLINATION":43.0056,"RA_OF_ASC_NODE":314.0947,"ARG_OF_PERICENTER":271.6213,"MEAN_ANOMALY":88.4502,"EPHEMERIS_TYPE":0,"CLASSIFICATION_TYPE":"U","NORAD_CAT_ID":57622,"ELEMENT_SET_NO":999,"REV_AT_EPOCH":13665,"BSTAR":-2.7091952e-5,"MEAN_MOTION_DOT":-5.7e-6,"MEAN_MOTION_DDOT":0},{"OBJECT_NAME":"STARLINK-30100","OBJECT_ID":"2023-119X","EPOCH":"2026-01-25T19:33:11.649024","MEAN_MOTION":15.02534383,"ECCENTRICITY":0.00013551,"INCLINATION":43.0043,"RA_OF_ASC_NODE":314.8168,"ARG_OF_PERICENTER":262.8668,"MEAN_ANOMALY":97.2021,"EPHEMERIS_TYPE":0,"CLASSIFICATION_TYPE":"U","NORAD_CAT_ID":57623,"ELEMENT_SET_NO":999,"REV_AT_EPOCH":13663,"BSTAR":8.88906e-7,"MEAN_MOTION_DOT":-1.92e-6,"MEAN_MOTION_DDOT":0},{"OBJECT_NAME":"STARLINK-30309","OBJECT_ID":"2023-122A","EPOCH":"2026-01-25T22:06:01.700064","MEAN_MOTION":15.02533887,"ECCENTRICITY":0.00012828,"INCLINATION":43.0052,"RA_OF_ASC_NODE":327.4303,"ARG_OF_PERICENTER":287.1194,"MEAN_ANOMALY":72.9508,"EPHEMERIS_TYPE":0,"CLASSIFICATION_TYPE":"U","NORAD_CAT_ID":57632,"ELEMENT_SET_NO":999,"REV_AT_EPOCH":13574,"BSTAR":0.00031486027,"MEAN_MOTION_DOT":4.052e-5,"MEAN_MOTION_DDOT":0},{"OBJECT_NAME":"STARLINK-30306","OBJECT_ID":"2023-122B","EPOCH":"2026-01-25T20:25:32.027232","MEAN_MOTION":15.02503802,"ECCENTRICITY":0.00015809,"INCLINATION":43.004,"RA_OF_ASC_NODE":327.7673,"ARG_OF_PERICENTER":263.7808,"MEAN_ANOMALY":96.2854,"EPHEMERIS_TYPE":0,"CLASSIFICATION_TYPE":"U","NORAD_CAT_ID":57633,"ELEMENT_SET_NO":999,"REV_AT_EPOCH":13573,"BSTAR":0.00070195271,"MEAN_MOTION_DOT":9.283e-5,"MEAN_MOTION_DDOT":0},{"OBJECT_NAME":"STARLINK-30323","OBJECT_ID":"2023-122C","EPOCH":"2026-01-25T20:17:45.661632","MEAN_MOTION":15.02543277,"ECCENTRICITY":0.00012162,"INCLINATION":43.0049,"RA_OF_ASC_NODE":314.1399,"ARG_OF_PERICENTER":269.7811,"MEAN_ANOMALY":90.2892,"EPHEMERIS_TYPE":0,"CLASSIFICATION_TYPE":"U","NORAD_CAT_ID":57634,"ELEMENT_SET_NO":999,"REV_AT_EPOCH":13589,"BSTAR":-7.6363988e-5,"MEAN_MOTION_DOT":-1.235e-5,"MEAN_MOTION_DDOT":0},{"OBJECT_NAME":"STARLINK-30329","OBJECT_ID":"2023-122D","EPOCH":"2026-01-24T23:36:14.176224","MEAN_MOTION":15.02546322,"ECCENTRICITY":0.000169,"INCLINATION":43.0032,"RA_OF_ASC_NODE":332.4364,"ARG_OF_PERICENTER":275.6497,"MEAN_ANOMALY":84.4153,"EPHEMERIS_TYPE":0,"CLASSIFICATION_TYPE":"U","NORAD_CAT_ID":57635,"ELEMENT_SET_NO":999,"REV_AT_EPOCH":13560,"BSTAR":-0.00016878234,"MEAN_MOTION_DOT":-2.484e-5,"MEAN_MOTION_DDOT":0},{"OBJECT_NAME":"STARLINK-30330","OBJECT_ID":"2023-122E","EPOCH":"2026-01-25T20:15:54.408672","MEAN_MOTION":15.02541765,"ECCENTRICITY":0.0001472,"INCLINATION":43.0051,"RA_OF_ASC_NODE":327.7172,"ARG_OF_PERICENTER":269.8529,"MEAN_ANOMALY":90.2145,"EPHEMERIS_TYPE":0,"CLASSIFICATION_TYPE":"U","NORAD_CAT_ID":57636,"ELEMENT_SET_NO":999,"REV_AT_EPOCH":13573,"BSTAR":-1.949882e-5,"MEAN_MOTION_DOT":-4.67e-6,"MEAN_MOTION_DDOT":0}]
